#aV2013 11 12  0  0  0.00000000     288 DD+AD WGS84 FIT  NGA
## 1766 172800.00000000   300.00000000 56608 0.0000000000000
+   31     1  2  3  4  5  6  7  8  9 10 11 12 13 14 15 16 17
+         18 19 20 21 22 23 24 25 26 27 28 29 31 32  0  0  0
+          0  0  0  0  0  0  0  0  0  0  0  0  0  0  0  0  0
+          0  0  0  0  0  0  0  0  0  0  0  0  0  0  0  0  0
+          0  0  0  0  0  0  0  0  0  0  0  0  0  0  0  0  0
++         2  2  2  2  2  2  2  2  2  2  2  2  2  2  2  2  2
++         2  2  2  2  2  2  2  2  2  2  2  2  2  2  2  0  0
++         0  0  0  0  0  0  0  0  0  0  0  0  0  0  0  0  0
++         0  0  0  0  0  0  0  0  0  0  0  0  0  0  0  0  0
++         0  0  0  0  0  0  0  0  0  0  0  0  0  0  0  0  0
%c cc cc ccc ccc cccc cccc cccc cccc ccccc ccccc ccccc ccccc
%c cc cc ccc ccc cccc cccc cccc cccc ccccc ccccc ccccc ccccc
%f  0.0000000  0.000000000  0.00000000000  0.000000000000000
%f  0.0000000  0.000000000  0.00000000000  0.000000000000000
%i    0    0    0    0      0      0      0      0         0
%i    0    0    0    0      0      0      0      0         0
/*      NGA, ST. LOUIS,MO.                                  
/*   EPHEMERIS COMPUTED FROM  1 DAYS OF DATA
/*   EPOCHA SMOOTHER  
/* CCCCCCCCCCCCCCCCCCCCCCCCCCCCCCCCCCCCCCCCCCCCCCCCCCCCCCCCC
*  2013 11 12  1 15  0.00000000                                                 
P  1 -13813.108068   8370.887062  21031.665161     93.404838                    
V  1  -3987.448272 -26521.097868   8031.335168      0.033041                    
P  2  13813.996711  16814.553854 -15326.352906    460.837059                    
V  2    695.356902  19853.903214  21564.050637      0.021466                    
P  3 -25154.635427  -8549.813348  -2705.199618    284.967657                    
V  3   3547.097342  -2578.370728 -30841.260035      0.051974                    
P  4   6861.587565  25107.493039  -4851.949207      3.095625                    
V  4  -2853.324101   6271.986208  30583.230066      0.004095                    
P  5  17352.509355   4539.906741 -19674.093403   -397.711170                    
V  5 -19062.504674  16064.675711 -12974.479301      0.006746                    
P  6 -21793.410157 -13457.342465  -7691.540357    145.513251                    
V  6  10163.206884    486.110240 -29049.223937      0.173290                    
P  7  -6667.445630  21943.139997 -13046.134059    279.717059                    
V  7  -3849.088080 -16469.331734 -25916.561929      0.042093                    
P  8  -1168.222005  26104.435575  -2066.922655      9.825650                    
V  8  -2176.520571  -2820.534740 -32821.604124      0.003196                    
P  9   1068.787423  26319.466487  -3269.406766    282.399279                    
V  9  -2579.314929  -3211.529085 -31982.085533      0.028712                    
P 10   1317.423496  17302.818723 -20315.544960   -101.393266                    
V 10 -21171.760933  13862.086667  11025.000907     -0.015667                    
P 11 -17350.399982    452.041525  19671.697743   -437.102050                    
V 11  -9828.750347 -24440.429754  -7679.774574     -0.035132                    
P 12  23210.674070  -9953.493207   7828.041708    167.549009                    
V 12  -7033.659666   7445.286361  30339.535933      0.022606                    
P 13 -11387.847574  10408.460294 -21767.887537     60.767582                    
V 13 -23716.282582 -13431.016845   5882.854919     -0.038207                    
P 14  -7667.598125 -17939.220448  18305.434590    210.897300                    
V 14  20791.073497   9246.740239  17842.985204     -0.010442                    
P 15  24725.150522   1767.419019   9872.497421   -146.667486                    
V 15  10655.414006   7215.395593 -27604.725332     -0.019453                    
P 16 -16960.587246  -4557.286315 -20062.926598   -242.071553                    
V 16  20543.962159 -14668.960739 -13727.327783      0.010617                    
P 17   7385.986926  17735.520546  18673.465419    -39.890198                    
V 17 -21433.914562  -8786.704861  16796.933138     -0.035062                    
P 18  13648.899831 -20254.070006  10433.666811    284.445377                    
V 18  12353.292179  -4951.592258 -27207.988724      0.021069                    
P 19 -24506.714030  -6389.140260   8574.713068   -417.929941                    
V 19  -8592.334597  -7099.900836 -29015.427862     -0.026657                    
P 20 -21856.991189  14321.554862   4333.168730    136.226844                    
V 20   1887.652324  -6682.733690  30399.026597      0.028705                    
P 21   4500.031934 -23656.814882 -10035.443891   -328.054833                    
V 21   5548.995448  13231.472375 -27614.235851     -0.018311                    
P 22   2511.783653 -19222.688002  18292.141031    194.628538                    
V 22  19574.021579 -12268.800899 -15901.182028      0.021634                    
P 23 -20681.150684   3672.492058 -16395.921665     30.992109                    
V 23 -18415.853312  -9949.754701  20482.628134     -0.033570                    
P 24  14913.738082  -3529.195509  21686.536034    -17.207842                    
V 24   3843.225404  27289.702205   1859.604896     -0.006811                    
P 25  18835.608372 -18133.359486  -4404.659608    165.865006                    
V 25   5855.494646  -1442.599472  31479.699947      0.032421                    
P 26  22810.419458  13870.303900  -2026.236889    251.677094                    
V 26  -2501.106333    922.189433 -31774.314334     -0.101991                    
P 27 -23072.294525 -12596.004475  -3875.569780    -57.228631                    
V 27   5586.505677   -635.884111 -31249.982057     -0.035786                    
P 28  -6798.517374  18832.380735  17960.107805    308.046020                    
V 28 -18648.491867  11029.521380 -19434.931961      0.030507                    
P 29  15091.915491  -8183.591125 -20215.646407    486.335980                    
V 29  22746.993335  12109.152714  12088.996445      0.030093                    
P 31  -6901.422533 -24540.060731  -6721.927500    329.527273                    
V 31   1530.378120  -9003.183694  30804.447473      0.006326                    
P 32 -22714.746455   3305.485413  12969.829299   -530.524844                    
V 32  12465.311405 -11287.230959  25419.873326      0.045028                    
EOF
